0 FENGYUN 1C DEB
1 29867U 99025FM  13281.79127582  .00011946  00000-0  18247-2 0  8199
2 29867 099.5064 264.7240 0111393 232.5756 250.5345 14.69850399356990
0 FENGYUN 1C DEB
1 29867U 99025FM  13282.20128089  .00019316  00000-0  29385-2 0  8205
2 29867 099.5065 265.2012 0111400 231.2955 260.0957 14.69877442357051
0 FENGYUN 1C DEB
1 29867U 99025FM  13282.93558521  .00016796  00000-0  25565-2 0  8219
2 29867 099.5066 266.0559 0111367 229.0532 185.7441 14.69896901357169
0 FENGYUN 1C DEB
1 29867U 99025FM  13283.88931551  .00016064  00000-0  24445-2 0  8227
2 29867 099.5067 267.1656 0111357 226.0677 192.6622 14.69918799357300
0 FENGYUN 1C DEB
1 29867U 99025FM  13285.65973130  .00013268  00000-0  20194-2 0  8234
2 29867 099.5064 269.2267 0111383 220.6068 201.4218 14.69966410357562
0 FENGYUN 1C DEB
1 29867U 99025FM  13286.68080333  .00014288  00000-0  21726-2 0  8248
2 29867 099.5059 270.4156 0111351 217.4154 204.9496 14.69987604357713
0 FENGYUN 1C DEB
1 29867U 99025FM  13287.90567338  .00025449  00000-0  38516-2 0  8256
2 29867 099.5055 271.8415 0111372 213.6245 207.0520 14.70024826357895
0 FENGYUN 1C DEB
1 29867U 99025FM  13289.19957472  .00019935  00000-0  30181-2 0  8265
2 29867 099.5057 273.3481 0111368 209.6254 214.6911 14.70074447358081
0 FENGYUN 1C DEB
1 29867U 99025FM  13289.88033994  .00018001  00000-0  27263-2 0  8276
2 29867 099.5059 274.1404 0111342 207.5162 217.5486 14.70089648358183
0 FENGYUN 1C DEB
1 29867U 99025FM  13291.18729186  .00016713  00000-0  25299-2 0  8283
2 29867 099.5063 275.6620 0111354 203.4850 294.5195 14.70131293358373
0 FENGYUN 1C DEB
1 29867U 99025FM  13292.20673914  .00014814  00000-0  22426-2 0  8294
2 29867 099.5066 276.8487 0111391 200.3581 289.9975 14.70159451358525
0 FENGYUN 1C DEB
1 29867U 99025FM  13293.43601015  .00016810  00000-0  25408-2 0  8306
2 29867 099.5074 278.2799 0111393 196.5066 316.1938 14.70189489358708
0 FENGYUN 1C DEB
1 29867U 99025FM  13294.71035990  .00020753  00000-0  31297-2 0  8316
2 29867 099.5075 279.7642 0111458 192.5815 221.0612 14.70221401358896
0 FENGYUN 1C DEB
1 29867U 99025FM  13295.20126410  .00017804  00000-0  26867-2 0  8320
2 29867 099.5077 280.3358 0111501 191.1112 299.3133 14.70233157358969
